{
  "type": "FeatureCollection",
  "features": [
    {
      "type": "Feature",
      "id": "area",
      "properties": {
        "kind": "area",
        "precision": "approximate",
        "outline_expansion_meters": 5
      },
      "geometry": {
        "type": "MultiPolygon",
        "coordinates": [
          [
            [
              [37.7488622, 55.0559004],
              [37.7498775, 55.055458],
              [37.7500277, 55.0553781],
              [37.7500317, 55.055332],
              [37.7497541, 55.05508],
              [37.7492163, 55.0547052],
              [37.7490191, 55.0546253],
              [37.7488636, 55.0546191],
              [37.7486369, 55.054656],
              [37.7484022, 55.0547513],
              [37.7482091, 55.0549141],
              [37.7478162, 55.055458],
              [37.747607, 55.0555624],
              [37.7475104, 55.0555778],
              [37.7473387, 55.0555717],
              [37.7467875, 55.055501],
              [37.7464912, 55.055501],
              [37.7462015, 55.0555317],
              [37.7455108, 55.0557929],
              [37.7448818, 55.0561954],
              [37.7448175, 55.0563245],
              [37.7447705, 55.056475],
              [37.7447062, 55.0565948],
              [37.7445975, 55.0566686],
              [37.7444741, 55.0567638],
              [37.7444044, 55.0568652],
              [37.7442985, 55.05732],
              [37.7443347, 55.0574521],
              [37.7448993, 55.0579222],
              [37.7450173, 55.0579682],
              [37.7451018, 55.0579652],
              [37.7452198, 55.0579437],
              [37.745311, 55.0578638],
              [37.7455256, 55.0575289],
              [37.7456007, 55.057363],
              [37.7456436, 55.0571848],
              [37.7457308, 55.0570404],
              [37.7459064, 55.0568621],
              [37.7463088, 55.0566071],
              [37.7467701, 55.0564596],
              [37.7471778, 55.0563521],
              [37.7476821, 55.0562907],
              [37.7479664, 55.0562538],
              [37.7482239, 55.0561923],
              [37.7484666, 55.0561002],
              [37.7488622, 55.0559004]
            ]
          ],
          [
            [
              [37.7514318, 55.0549018],
              [37.753654, 55.0538509],
              [37.7537667, 55.0537557],
              [37.7537814, 55.0537004],
              [37.7537613, 55.0536727],
              [37.7536379, 55.0536481],
              [37.7534609, 55.0536635],
              [37.7503817, 55.0542504],
              [37.7502355, 55.0542473],
              [37.7501604, 55.0542412],
              [37.7501296, 55.0542934],
              [37.7501618, 55.0543579],
              [37.7510616, 55.0549633],
              [37.7511756, 55.0549725],
              [37.7513138, 55.0549418],
              [37.7514318, 55.0549018]
            ]
          ]
        ]
      }
    }
  ]
}
