{
  "type": "FeatureCollection",
  "metadata": {
    "name": "Объезд закрытой дамбы из Семеновского",
    "creator": "Yandex Map Constructor",
    "description": "Как попасть в поселок из Семеновского через временный проезд с воротами через Парк"
  },
  "features": [
    {
      "type": "Feature",
      "id": 0,
      "geometry": {
        "type": "LineString",
        "coordinates": [
          [37.76425874643668, 55.05669806228141],
          [37.7636150162731, 55.055022862236605],
          [37.76222026758535, 55.052867170359406],
          [37.76108301096304, 55.052990355892796],
          [37.7599242966686, 55.0530149929538],
          [37.758915786079, 55.05294108172513],
          [37.75807893686635, 55.05285485178513],
          [37.75771415644033, 55.0529041260594],
          [37.75743520670277, 55.0531381780304],
          [37.757070426276755, 55.05319977042595],
          [37.754752997687895, 55.053212088888294],
          [37.7541950982128, 55.05310122254204],
          [37.7527359765087, 55.05312585953452],
          [37.751963500312414, 55.052928763168325],
          [37.74531162195549, 55.05286717035404],
          [37.742414836219396, 55.053544686071696],
          [37.73814475946769, 55.054172917634816],
          [37.735784415534575, 55.05454246098817]
        ]
      },
      "properties": {
        "description": "Путь",
        "stroke": "#ed4543",
        "stroke-width": "5",
        "stroke-opacity": 0.9
      }
    },
    {
      "type": "Feature",
      "id": 1,
      "geometry": { "coordinates": [37.76426411085491, 55.05675656992527], "type": "Point" },
      "properties": { "iconCaption": "Семеновское", "marker-color": "#1e98ff" }
    },
    {
      "type": "Feature",
      "id": 2,
      "geometry": { "coordinates": [37.7358756106412, 55.054607130792576], "type": "Point" },
      "properties": {
        "description": "Открываются по звонку на специальный номер",
        "iconCaption": "Ворота",
        "marker-color": "#1e98ff"
      }
    },
    {
      "type": "Feature",
      "id": 3,
      "geometry": { "coordinates": [37.76222026758543, 55.052873329671975], "type": "Point" },
      "properties": { "iconCaption": "Съезд в Авдотьино", "marker-color": "#1e98ff" }
    }
  ]
}
