{
  "type": "FeatureCollection",
  "metadata": { "name": "Без названия", "creator": "Yandex Map Constructor" },
  "features": [
    {
      "type": "Feature",
      "id": 0,
      "geometry": {
        "type": "Polygon",
        "coordinates": [
          [
            [37.58817172460933, 55.638859553498186],
            [37.58752799444576, 55.63769439688623],
            [37.59053206854245, 55.6361408005985],
            [37.5934073966064, 55.63728172890703],
            [37.5934073966064, 55.638835279757075],
            [37.59087539129634, 55.640048948308426],
            [37.58817172460933, 55.638859553498186]
          ]
        ]
      },
      "properties": {
        "description": "тестовый многоугольник",
        "fill": "#ffd21e",
        "fill-opacity": 0.6,
        "stroke": "#ed4543",
        "stroke-width": "5",
        "stroke-opacity": 0.9
      }
    },
    {
      "type": "Feature",
      "id": 1,
      "geometry": {
        "type": "Polygon",
        "coordinates": [
          [
            [37.58143401556393, 55.641614524943996],
            [37.57971740179439, 55.64057081415694],
            [37.5779149573364, 55.6386289523294],
            [37.57774329595943, 55.63746378882936],
            [37.578687433532686, 55.63683264406859],
            [37.579588655761675, 55.63683264406859],
            [37.58246398382563, 55.63731814094476],
            [37.58529639654538, 55.63942998204733],
            [37.58654094152829, 55.642124234015185],
            [37.58323646002194, 55.642269863954894],
            [37.58143401556393, 55.641614524943996]
          ],
          [
            [37.5835368674316, 55.64047372336153],
            [37.58336520605465, 55.63916297396908],
            [37.58182025366206, 55.63845903481995],
            [37.579545740417444, 55.63865322619891],
            [37.58001780920407, 55.63996399272062],
            [37.5835368674316, 55.64047372336153]
          ]
        ]
      },
      "properties": {
        "description": "с внутренним контуром",
        "fill": "#ffd21e",
        "fill-opacity": 0.6,
        "stroke": "#ed4543",
        "stroke-width": "5",
        "stroke-opacity": 0.9
      }
    }
  ]
}
